{"type": "FeatureCollection", "features": [{"type": "Feature", "properties": {"norad_id": 25590, "name": "COSMOS 2361", "group": "musson", "lat": -12.553077497319084, "lon": 171.24403174743438, "alt_km": 994.3206375481313, "timestamp": "2025-12-05T04:52:15.562812+00:00", "meta": {"OBJECT_NAME": "COSMOS 2361", "OBJECT_ID": "1998-076A", "EPOCH": "2025-12-04T12:46:20.947296", "MEAN_MOTION": 13.73216137, "ECCENTRICITY": 0.0030147, "INCLINATION": 82.9341, "RA_OF_ASC_NODE": 350.1574, "ARG_OF_PERICENTER": 289.4583, "MEAN_ANOMALY": 189.2779, "EPHEMERIS_TYPE": 0, "CLASSIFICATION_TYPE": "U", "NORAD_CAT_ID": 25590, "ELEMENT_SET_NO": 999, "REV_AT_EPOCH": 34998, "BSTAR": 9.2084e-05, "MEAN_MOTION_DOT": 1e-06, "MEAN_MOTION_DDOT": 0}, "tle": {"line1": "1 25590U 98076A   25338.53218689  .00000100  00000+0  92084-4 0  9991", "line2": "2 25590  82.9341 350.1574 0030147 289.4583 189.2779 13.73216137349989"}}, "geometry": {"type": "Point", "coordinates": [171.24403174743438, -12.553077497319084]}}, {"type": "Feature", "properties": {"norad_id": 26818, "name": "COSMOS 2378", "group": "musson", "lat": -59.83677339953926, "lon": -162.35236243912703, "alt_km": 969.0366759453855, "timestamp": "2025-12-05T04:52:15.562831+00:00", "meta": {"OBJECT_NAME": "COSMOS 2378", "OBJECT_ID": "2001-023A", "EPOCH": "2025-12-04T14:16:23.013120", "MEAN_MOTION": 13.74141048, "ECCENTRICITY": 0.0031973, "INCLINATION": 82.9279, "RA_OF_ASC_NODE": 5.7647, "ARG_OF_PERICENTER": 228.135, "MEAN_ANOMALY": 245.068, "EPHEMERIS_TYPE": 0, "CLASSIFICATION_TYPE": "U", "NORAD_CAT_ID": 26818, "ELEMENT_SET_NO": 999, "REV_AT_EPOCH": 22811, "BSTAR": 9.8851e-05, "MEAN_MOTION_DOT": 1.08e-06, "MEAN_MOTION_DDOT": 0}, "tle": {"line1": "1 26818U 01023A   25338.59471080  .00000108  00000+0  98851-4 0  9999", "line2": "2 26818  82.9279   5.7647 0031973 228.1350 245.0680 13.74141048228119"}}, "geometry": {"type": "Point", "coordinates": [-162.35236243912703, -59.83677339953926]}}, {"type": "Feature", "properties": {"norad_id": 27436, "name": "COSMOS 2389", "group": "musson", "lat": 58.95979127752287, "lon": -35.56845273948512, "alt_km": 942.6718079039065, "timestamp": "2025-12-05T04:52:15.562843+00:00", "meta": {"OBJECT_NAME": "COSMOS 2389", "OBJECT_ID": "2002-026A", "EPOCH": "2025-12-04T11:40:35.799744", "MEAN_MOTION": 13.75153289, "ECCENTRICITY": 0.0047764, "INCLINATION": 82.9495, "RA_OF_ASC_NODE": 313.0951, "ARG_OF_PERICENTER": 83.161, "MEAN_ANOMALY": 32.0491, "EPHEMERIS_TYPE": 0, "CLASSIFICATION_TYPE": "U", "NORAD_CAT_ID": 27436, "ELEMENT_SET_NO": 999, "REV_AT_EPOCH": 18035, "BSTAR": 6.7142e-05, "MEAN_MOTION_DOT": 8e-07, "MEAN_MOTION_DDOT": 0}, "tle": {"line1": "1 27436U 02026A   25338.48652546  .00000080  00000+0  67142-4 0  9994", "line2": "2 27436  82.9495 313.0951 0047764  83.1610  32.0491 13.75153289180350"}}, "geometry": {"type": "Point", "coordinates": [-35.56845273948512, 58.95979127752287]}}, {"type": "Feature", "properties": {"norad_id": 27818, "name": "COSMOS 2398", "group": "musson", "lat": 82.47504074970756, "lon": -12.175589818433865, "alt_km": 966.5938933696307, "timestamp": "2025-12-05T04:52:15.562853+00:00", "meta": {"OBJECT_NAME": "COSMOS 2398", "OBJECT_ID": "2003-023A", "EPOCH": "2025-12-04T15:17:44.872224", "MEAN_MOTION": 13.72384546, "ECCENTRICITY": 0.0032272, "INCLINATION": 82.9476, "RA_OF_ASC_NODE": 278.6693, "ARG_OF_PERICENTER": 133.5525, "MEAN_ANOMALY": 41.1053, "EPHEMERIS_TYPE": 0, "CLASSIFICATION_TYPE": "U", "NORAD_CAT_ID": 27818, "ELEMENT_SET_NO": 999, "REV_AT_EPOCH": 12705, "BSTAR": 7.1532e-05, "MEAN_MOTION_DOT": 8.1e-07, "MEAN_MOTION_DDOT": 0}, "tle": {"line1": "1 27818U 03023A   25338.63732491  .00000081  00000+0  71532-4 0  9990", "line2": "2 27818  82.9476 278.6693 0032272 133.5525  41.1053 13.72384546127057"}}, "geometry": {"type": "Point", "coordinates": [-12.175589818433865, 82.47504074970756]}}, {"type": "Feature", "properties": {"norad_id": 28380, "name": "COSMOS 2407", "group": "musson", "lat": 2.466529097288744, "lon": 38.167524924780786, "alt_km": 985.7318844648689, "timestamp": "2025-12-05T04:52:15.562863+00:00", "meta": {"OBJECT_NAME": "COSMOS 2407", "OBJECT_ID": "2004-028A", "EPOCH": "2025-12-04T16:05:12.555744", "MEAN_MOTION": 13.76312357, "ECCENTRICITY": 0.0040515, "INCLINATION": 82.9614, "RA_OF_ASC_NODE": 218.8668, "ARG_OF_PERICENTER": 76.7297, "MEAN_ANOMALY": 342.4544, "EPHEMERIS_TYPE": 0, "CLASSIFICATION_TYPE": "U", "NORAD_CAT_ID": 28380, "ELEMENT_SET_NO": 999, "REV_AT_EPOCH": 7312, "BSTAR": 0.00011516, "MEAN_MOTION_DOT": 1.29e-06, "MEAN_MOTION_DDOT": 0}, "tle": {"line1": "1 28380U 04028A   25338.67028421  .00000129  00000+0  11516-3 0  9994", "line2": "2 28380  82.9614 218.8668 0040515  76.7297 342.4544 13.76312357 73122"}}, "geometry": {"type": "Point", "coordinates": [38.167524924780786, 2.466529097288744]}}, {"type": "Feature", "properties": {"norad_id": 28521, "name": "COSMOS 2414", "group": "musson", "lat": 53.24673208710198, "lon": 0.8208056809037908, "alt_km": 906.6631498243378, "timestamp": "2025-12-05T04:52:15.562873+00:00", "meta": {"OBJECT_NAME": "COSMOS 2414", "OBJECT_ID": "2005-002A", "EPOCH": "2025-12-04T16:09:12.185280", "MEAN_MOTION": 13.87901416, "ECCENTRICITY": 0.00404, "INCLINATION": 82.9499, "RA_OF_ASC_NODE": 190.7594, "ARG_OF_PERICENTER": 162.3516, "MEAN_ANOMALY": 197.9062, "EPHEMERIS_TYPE": 0, "CLASSIFICATION_TYPE": "U", "NORAD_CAT_ID": 28521, "ELEMENT_SET_NO": 999, "REV_AT_EPOCH": 5683, "BSTAR": 0.0001034, "MEAN_MOTION_DOT": 1.4e-06, "MEAN_MOTION_DDOT": 0}, "tle": {"line1": "1 28521U 05002A   25338.67305770  .00000140  00000+0  10340-3 0  9996", "line2": "2 28521  82.9499 190.7594 0040400 162.3516 197.9062 13.87901416 56834"}}, "geometry": {"type": "Point", "coordinates": [0.8208056809037908, 53.24673208710198]}}, {"type": "Feature", "properties": {"norad_id": 32052, "name": "COSMOS 2429", "group": "musson", "lat": -65.00239677625542, "lon": -175.81227403596984, "alt_km": 1017.254248287365, "timestamp": "2025-12-05T04:52:15.562883+00:00", "meta": {"OBJECT_NAME": "COSMOS 2429", "OBJECT_ID": "2007-038A", "EPOCH": "2025-12-04T13:42:37.355616", "MEAN_MOTION": 13.75148197, "ECCENTRICITY": 0.0039582, "INCLINATION": 82.9804, "RA_OF_ASC_NODE": 349.331, "ARG_OF_PERICENTER": 60.0782, "MEAN_ANOMALY": 300.4296, "EPHEMERIS_TYPE": 0, "CLASSIFICATION_TYPE": "U", "NORAD_CAT_ID": 32052, "ELEMENT_SET_NO": 999, "REV_AT_EPOCH": 91490, "BSTAR": 7.4425e-05, "MEAN_MOTION_DOT": 8.7e-07, "MEAN_MOTION_DDOT": 0}, "tle": {"line1": "1 32052U 07038A   25338.57126569  .00000087  00000+0  74425-4 0  9992", "line2": "2 32052  82.9804 349.3310 0039582  60.0782 300.4296 13.75148197914901"}}, "geometry": {"type": "Point", "coordinates": [-175.81227403596984, -65.00239677625542]}}, {"type": "Feature", "properties": {"norad_id": 35635, "name": "COSMOS 2454", "group": "musson", "lat": 57.46256846085931, "lon": -16.816937424762827, "alt_km": 910.1287268017231, "timestamp": "2025-12-05T04:52:15.562893+00:00", "meta": {"OBJECT_NAME": "COSMOS 2454", "OBJECT_ID": "2009-039A", "EPOCH": "2025-12-04T14:44:47.476896", "MEAN_MOTION": 13.89927158, "ECCENTRICITY": 0.0020498, "INCLINATION": 82.9557, "RA_OF_ASC_NODE": 174.8042, "ARG_OF_PERICENTER": 95.4609, "MEAN_ANOMALY": 323.1065, "EPHEMERIS_TYPE": 0, "CLASSIFICATION_TYPE": "U", "NORAD_CAT_ID": 35635, "ELEMENT_SET_NO": 999, "REV_AT_EPOCH": 83037, "BSTAR": 9.1788e-05, "MEAN_MOTION_DOT": 1.29e-06, "MEAN_MOTION_DDOT": 0}, "tle": {"line1": "1 35635U 09039A   25338.61443839  .00000129  00000+0  91788-4 0  9990", "line2": "2 35635  82.9557 174.8042 0020498  95.4609 323.1065 13.89927158830376"}}, "geometry": {"type": "Point", "coordinates": [-16.816937424762827, 57.46256846085931]}}, {"type": "Feature", "properties": {"norad_id": 36519, "name": "COSMOS 2463", "group": "musson", "lat": -62.08686326018425, "lon": 18.766333470246526, "alt_km": 975.5996855324374, "timestamp": "2025-12-05T04:52:15.562902+00:00", "meta": {"OBJECT_NAME": "COSMOS 2463", "OBJECT_ID": "2010-017A", "EPOCH": "2025-12-04T15:44:30.007104", "MEAN_MOTION": 13.71648077, "ECCENTRICITY": 0.003507, "INCLINATION": 82.962, "RA_OF_ASC_NODE": 32.6527, "ARG_OF_PERICENTER": 311.2467, "MEAN_ANOMALY": 166.1745, "EPHEMERIS_TYPE": 0, "CLASSIFICATION_TYPE": "U", "NORAD_CAT_ID": 36519, "ELEMENT_SET_NO": 999, "REV_AT_EPOCH": 78126, "BSTAR": 9.5334e-05, "MEAN_MOTION_DOT": 1.01e-06, "MEAN_MOTION_DDOT": 0}, "tle": {"line1": "1 36519U 10017A   25338.65590286  .00000101  00000+0  95334-4 0  9994", "line2": "2 36519  82.9620  32.6527 0035070 311.2467 166.1745 13.71648077781265"}}, "geometry": {"type": "Point", "coordinates": [18.766333470246526, -62.08686326018425]}}]}